{
  "type": "FeatureCollection",
  "features": [
    {
      "type": "Feature",
      "properties": {
        "norad_id": 43823,
        "name": "GEO-KOMPSAT-2A",
        "group": "weather",
        "lat": 0.026304742049595063,
        "lon": 147.5730142239984,
        "alt_km": 35784.372334450454,
        "timestamp": "2025-12-16T19:34:23.907799+00:00",
        "meta_object_name": "GEO-KOMPSAT-2A",
        "meta_object_id": "2018-100A",
        "meta_epoch": "2025-12-14T19:09:50.685120",
        "meta_mean_motion": 1.00272904,
        "meta_eccentricity": 4.857e-05,
        "meta_inclination": 0.0478,
        "meta_ra_of_asc_node": 139.8747,
        "meta_arg_of_pericenter": 333.1425,
        "meta_mean_anomaly": 26.433,
        "meta_ephemeris_type": 0,
        "meta_classification_type": "U",
        "meta_norad_cat_id": 43823,
        "meta_element_set_no": 999,
        "meta_rev_at_epoch": 2578,
        "meta_bstar": 0,
        "meta_mean_motion_dot": -3.24e-06,
        "meta_mean_motion_ddot": 0,
        "tle_line1": "1 43823U 18100A   25348.79850330 -.00000324  00000+0  00000+0 0  9995",
        "tle_line2": "2 43823   0.0478 139.8747 0000485 333.1425  26.4330  1.00272904 25783"
      },
      "geometry": {
        "type": "Point",
        "coordinates": [
          147.5730142239984,
          0.026304742049595063
        ]
      }
    },
    {
      "type": "Feature",
      "properties": {
        "norad_id": 44387,
        "name": "METEOR-M2 2",
        "group": "weather",
        "lat": 21.400630460383653,
        "lon": -32.92539752637102,
        "alt_km": 811.1120811890278,
        "timestamp": "2025-12-16T19:34:23.907811+00:00",
        "meta_object_name": "METEOR-M2 2",
        "meta_object_id": "2019-038A",
        "meta_epoch": "2025-12-15T23:14:23.635104",
        "meta_mean_motion": 14.24293088,
        "meta_eccentricity": 0.00014103,
        "meta_inclination": 98.8971,
        "meta_ra_of_asc_node": 329.7367,
        "meta_arg_of_pericenter": 141.5201,
        "meta_mean_anomaly": 218.6079,
        "meta_ephemeris_type": 0,
        "meta_classification_type": "U",
        "meta_norad_cat_id": 44387,
        "meta_element_set_no": 999,
        "meta_rev_at_epoch": 33521,
        "meta_bstar": 4.597387e-05,
        "meta_mean_motion_dot": 6e-07,
        "meta_mean_motion_ddot": 0,
        "tle_line1": "1 44387U 19038A   25349.96832911  .00000060  00000+0  45974-4 0  9997",
        "tle_line2": "2 44387  98.8971 329.7367 0001410 141.5201 218.6079 14.24293088335215"
      },
      "geometry": {
        "type": "Point",
        "coordinates": [
          -32.92539752637102,
          21.400630460383653
        ]
      }
    },
    {
      "type": "Feature",
      "properties": {
        "norad_id": 47719,
        "name": "ARKTIKA-M 1",
        "group": "weather",
        "lat": 63.00652095157545,
        "lon": -179.28162392742266,
        "alt_km": 38971.168144542775,
        "timestamp": "2025-12-16T19:34:23.907825+00:00",
        "meta_object_name": "ARKTIKA-M 1",
        "meta_object_id": "2021-016A",
        "meta_epoch": "2025-12-16T01:33:46.454400",
        "meta_mean_motion": 2.00630649,
        "meta_eccentricity": 0.7205676,
        "meta_inclination": 63.179,
        "meta_ra_of_asc_node": 83.5626,
        "meta_arg_of_pericenter": 269.1378,
        "meta_mean_anomaly": 15.5886,
        "meta_ephemeris_type": 0,
        "meta_classification_type": "U",
        "meta_norad_cat_id": 47719,
        "meta_element_set_no": 999,
        "meta_rev_at_epoch": 3511,
        "meta_bstar": 0,
        "meta_mean_motion_dot": -1.08e-06,
        "meta_mean_motion_ddot": 0,
        "tle_line1": "1 47719U 21016A   25350.06512100 -.00000108  00000+0  00000+0 0  9996",
        "tle_line2": "2 47719  63.1790  83.5626 7205676 269.1378  15.5886  2.00630649 35118"
      },
      "geometry": {
        "type": "Point",
        "coordinates": [
          -179.28162392742266,
          63.00652095157545
        ]
      }
    },
    {
      "type": "Feature",
      "properties": {
        "norad_id": 49008,
        "name": "FENGYUN 3E",
        "group": "weather",
        "lat": -79.19166032294062,
        "lon": 45.045796825786994,
        "alt_km": 832.7246629603897,
        "timestamp": "2025-12-16T19:34:23.907839+00:00",
        "meta_object_name": "FENGYUN 3E",
        "meta_object_id": "2021-062A",
        "meta_epoch": "2025-12-15T23:40:18.801408",
        "meta_mean_motion": 14.19881378,
        "meta_eccentricity": 6.281e-05,
        "meta_inclination": 98.7478,
        "meta_ra_of_asc_node": 350.4692,
        "meta_arg_of_pericenter": 238.9796,
        "meta_mean_anomaly": 121.1319,
        "meta_ephemeris_type": 0,
        "meta_classification_type": "U",
        "meta_norad_cat_id": 49008,
        "meta_element_set_no": 999,
        "meta_rev_at_epoch": 23058,
        "meta_bstar": 0.00016384858,
        "meta_mean_motion_dot": 3.04e-06,
        "meta_mean_motion_ddot": 0,
        "tle_line1": "1 49008U 21062A   25349.98632872  .00000304  00000+0  16385-3 0  9992",
        "tle_line2": "2 49008  98.7478 350.4692 0000628 238.9796 121.1319 14.19881378230581"
      },
      "geometry": {
        "type": "Point",
        "coordinates": [
          45.045796825786994,
          -79.19166032294062
        ]
      }
    },
    {
      "type": "Feature",
      "properties": {
        "norad_id": 51850,
        "name": "GOES 18",
        "group": "weather",
        "lat": -0.001697869784593668,
        "lon": -117.71605123513952,
        "alt_km": 35785.69886721271,
        "timestamp": "2025-12-16T19:34:23.907853+00:00",
        "meta_object_name": "GOES 18",
        "meta_object_id": "2022-021A",
        "meta_epoch": "2025-12-15T17:52:20.868672",
        "meta_mean_motion": 1.00271592,
        "meta_eccentricity": 4.764e-05,
        "meta_inclination": 0.0106,
        "meta_ra_of_asc_node": 96.1973,
        "meta_arg_of_pericenter": 226.8289,
        "meta_mean_anomaly": 252.7066,
        "meta_ephemeris_type": 0,
        "meta_classification_type": "U",
        "meta_norad_cat_id": 51850,
        "meta_element_set_no": 999,
        "meta_rev_at_epoch": 475,
        "meta_bstar": 0,
        "meta_mean_motion_dot": 1.19e-06,
        "meta_mean_motion_ddot": 0,
        "tle_line1": "1 51850U 22021A   25349.74468598  .00000119  00000+0  00000+0 0  9999",
        "tle_line2": "2 51850   0.0106  96.1973 0000476 226.8289 252.7066  1.00271592  4758"
      },
      "geometry": {
        "type": "Point",
        "coordinates": [
          -117.71605123513952,
          -0.001697869784593668
        ]
      }
    },
    {
      "type": "Feature",
      "properties": {
        "norad_id": 54234,
        "name": "NOAA 21 (JPSS-2)",
        "group": "weather",
        "lat": -78.47399867798032,
        "lon": -23.908250256586623,
        "alt_km": 834.8318373886104,
        "timestamp": "2025-12-16T19:34:23.907864+00:00",
        "meta_object_name": "NOAA 21 (JPSS-2)",
        "meta_object_id": "2022-150A",
        "meta_epoch": "2025-12-15T21:58:10.978176",
        "meta_mean_motion": 14.1952517,
        "meta_eccentricity": 0.00020866,
        "meta_inclination": 98.7464,
        "meta_ra_of_asc_node": 286.184,
        "meta_arg_of_pericenter": 31.8766,
        "meta_mean_anomaly": 328.2536,
        "meta_ephemeris_type": 0,
        "meta_classification_type": "U",
        "meta_norad_cat_id": 54234,
        "meta_element_set_no": 999,
        "meta_rev_at_epoch": 16054,
        "meta_bstar": 5.1082584e-05,
        "meta_mean_motion_dot": 6.4e-07,
        "meta_mean_motion_ddot": 0,
        "tle_line1": "1 54234U 22150A   25349.91540484  .00000064  00000+0  51083-4 0  9996",
        "tle_line2": "2 54234  98.7464 286.1840 0002086  31.8766 328.2536 14.19525170160544"
      },
      "geometry": {
        "type": "Point",
        "coordinates": [
          -23.908250256586623,
          -78.47399867798032
        ]
      }
    },
    {
      "type": "Feature",
      "properties": {
        "norad_id": 54743,
        "name": "METEOSAT-12 (MTG-I1)",
        "group": "weather",
        "lat": -0.04649305425366605,
        "lon": 19.017464302697807,
        "alt_km": 35789.48101459568,
        "timestamp": "2025-12-16T19:34:23.907876+00:00",
        "meta_object_name": "METEOSAT-12 (MTG-I1)",
        "meta_object_id": "2022-170C",
        "meta_epoch": "2025-12-15T21:56:47.044896",
        "meta_mean_motion": 1.00269839,
        "meta_eccentricity": 0.00015644,
        "meta_inclination": 0.6902,
        "meta_ra_of_asc_node": 24.1578,
        "meta_arg_of_pericenter": 239.0521,
        "meta_mean_anomaly": 150.5168,
        "meta_ephemeris_type": 0,
        "meta_classification_type": "U",
        "meta_norad_cat_id": 54743,
        "meta_element_set_no": 999,
        "meta_rev_at_epoch": 1114,
        "meta_bstar": 0,
        "meta_mean_motion_dot": 1.5e-07,
        "meta_mean_motion_ddot": 0,
        "tle_line1": "1 54743U 22170C   25349.91443339  .00000015  00000+0  00000+0 0  9998",
        "tle_line2": "2 54743   0.6902  24.1578 0001564 239.0521 150.5168  1.00269839 11148"
      },
      "geometry": {
        "type": "Point",
        "coordinates": [
          19.017464302697807,
          -0.04649305425366605
        ]
      }
    }
  ]
}